- satellite_id: sat_iceye-x2
  tle_line1: 1 43800U 18099AU  25198.18226327  .00004966  00000-0  28924-3 0  9991
  tle_line2: 2 43800  97.4850 253.1891 0011968  31.8178 328.3774 15.12407443362097
  tle_epoch: '2025-07-17T04:22:27.546Z'
  sensor:
    min_edge_off_nadir_deg: 18.0
    max_edge_off_nadir_deg: 34.0
    cross_track_fov_deg: 2.8
    min_strip_duration_s: 20
    max_strip_duration_s: 120
  agility:
    max_roll_rate_deg_per_s: 1.2
    max_roll_acceleration_deg_per_s2: 0.4
    settling_time_s: 2.0
  power:
    battery_capacity_wh: 900
    initial_battery_wh: 540
    idle_power_w: 85
    imaging_power_w: 290
    slew_power_w: 35
    sunlit_charge_power_w: 170
    imaging_duty_limit_s_per_orbit: 900
- satellite_id: sat_iceye-x27
  tle_line1: 1 55062U 23001BF  25197.75821477  .00044987  00000-0  61256-3 0  9994
  tle_line2: 2 55062  97.3659 265.8026 0003642 205.6884 154.4191 15.57420719141211
  tle_epoch: '2025-07-16T18:11:49.756Z'
  sensor:
    min_edge_off_nadir_deg: 18.0
    max_edge_off_nadir_deg: 34.0
    cross_track_fov_deg: 2.8
    min_strip_duration_s: 20
    max_strip_duration_s: 120
  agility:
    max_roll_rate_deg_per_s: 1.2
    max_roll_acceleration_deg_per_s2: 0.4
    settling_time_s: 2.0
  power:
    battery_capacity_wh: 900
    initial_battery_wh: 540
    idle_power_w: 85
    imaging_power_w: 290
    slew_power_w: 35
    sunlit_charge_power_w: 170
    imaging_duty_limit_s_per_orbit: 900
- satellite_id: sat_iceye-x45
  tle_line1: 1 62705U 25009DA  25197.78008711  .00004327  00000-0  34466-3 0  9994
  tle_line2: 2 62705  97.7568 278.5032 0001681 132.5695 227.5671 15.00888737 27374
  tle_epoch: '2025-07-16T18:43:19.526Z'
  sensor:
    min_edge_off_nadir_deg: 16.0
    max_edge_off_nadir_deg: 40.0
    cross_track_fov_deg: 4.8
    min_strip_duration_s: 20
    max_strip_duration_s: 180
  agility:
    max_roll_rate_deg_per_s: 1.8
    max_roll_acceleration_deg_per_s2: 0.7
    settling_time_s: 1.5
  power:
    battery_capacity_wh: 1300
    initial_battery_wh: 780
    idle_power_w: 105
    imaging_power_w: 360
    slew_power_w: 45
    sunlit_charge_power_w: 230
    imaging_duty_limit_s_per_orbit: 1200
- satellite_id: sat_iceye-x7
  tle_line1: 1 46496U 20068L   25198.19262042  .00008939  00000-0  39342-3 0  9999
  tle_line2: 2 46496  97.7077 147.8940 0011341  67.3099 292.9334 15.22043600263674
  tle_epoch: '2025-07-17T04:37:22.404Z'
  sensor:
    min_edge_off_nadir_deg: 16.0
    max_edge_off_nadir_deg: 40.0
    cross_track_fov_deg: 4.8
    min_strip_duration_s: 20
    max_strip_duration_s: 180
  agility:
    max_roll_rate_deg_per_s: 1.8
    max_roll_acceleration_deg_per_s2: 0.7
    settling_time_s: 1.5
  power:
    battery_capacity_wh: 1300
    initial_battery_wh: 780
    idle_power_w: 105
    imaging_power_w: 360
    slew_power_w: 45
    sunlit_charge_power_w: 230
    imaging_duty_limit_s_per_orbit: 1200
- satellite_id: sat_iceye-x21
  tle_line1: 1 55049U 23001AS  25198.17331073  .00020181  00000-0  44589-3 0  9994
  tle_line2: 2 55049  97.3728 264.9719 0015816 192.4139 167.6721 15.43751474141196
  tle_epoch: '2025-07-17T04:09:34.047Z'
  sensor:
    min_edge_off_nadir_deg: 16.0
    max_edge_off_nadir_deg: 40.0
    cross_track_fov_deg: 4.8
    min_strip_duration_s: 20
    max_strip_duration_s: 180
  agility:
    max_roll_rate_deg_per_s: 1.8
    max_roll_acceleration_deg_per_s2: 0.7
    settling_time_s: 1.5
  power:
    battery_capacity_wh: 1300
    initial_battery_wh: 780
    idle_power_w: 105
    imaging_power_w: 360
    slew_power_w: 45
    sunlit_charge_power_w: 230
    imaging_duty_limit_s_per_orbit: 1200
- satellite_id: sat_iceye-x30
  tle_line1: 1 56947U 23084R   25197.93582835  .00021672  00000-0  48397-3 0  9997
  tle_line2: 2 56947  97.5667 330.5306 0007728 110.9563 249.2512 15.43525623116595
  tle_epoch: '2025-07-16T22:27:35.569Z'
  sensor:
    min_edge_off_nadir_deg: 16.0
    max_edge_off_nadir_deg: 40.0
    cross_track_fov_deg: 4.8
    min_strip_duration_s: 20
    max_strip_duration_s: 180
  agility:
    max_roll_rate_deg_per_s: 1.8
    max_roll_acceleration_deg_per_s2: 0.7
    settling_time_s: 1.5
  power:
    battery_capacity_wh: 1300
    initial_battery_wh: 780
    idle_power_w: 105
    imaging_power_w: 360
    slew_power_w: 45
    sunlit_charge_power_w: 230
    imaging_duty_limit_s_per_orbit: 1200
- satellite_id: sat_iceye-x26
  tle_line1: 1 56961U 23084AF  25197.93472661  .00027536  00000-0  48795-3 0  9995
  tle_line2: 2 56961  97.5643 332.6812 0001815  62.8062 297.3374 15.50239059116739
  tle_epoch: '2025-07-16T22:26:00.379Z'
  sensor:
    min_edge_off_nadir_deg: 18.0
    max_edge_off_nadir_deg: 34.0
    cross_track_fov_deg: 2.8
    min_strip_duration_s: 20
    max_strip_duration_s: 120
  agility:
    max_roll_rate_deg_per_s: 1.2
    max_roll_acceleration_deg_per_s2: 0.4
    settling_time_s: 2.0
  power:
    battery_capacity_wh: 900
    initial_battery_wh: 540
    idle_power_w: 85
    imaging_power_w: 290
    slew_power_w: 35
    sunlit_charge_power_w: 170
    imaging_duty_limit_s_per_orbit: 900
- satellite_id: sat_iceye-x43
  tle_line1: 1 60539U 24149BZ  25198.17381721  .00002779  00000-0  24650-3 0  9993
  tle_line2: 2 60539  97.7127 274.6316 0005085 102.9067 257.2723 14.96993599 49948
  tle_epoch: '2025-07-17T04:10:17.806Z'
  sensor:
    min_edge_off_nadir_deg: 18.0
    max_edge_off_nadir_deg: 34.0
    cross_track_fov_deg: 2.8
    min_strip_duration_s: 20
    max_strip_duration_s: 120
  agility:
    max_roll_rate_deg_per_s: 1.2
    max_roll_acceleration_deg_per_s2: 0.4
    settling_time_s: 2.0
  power:
    battery_capacity_wh: 900
    initial_battery_wh: 540
    idle_power_w: 85
    imaging_power_w: 290
    slew_power_w: 35
    sunlit_charge_power_w: 170
    imaging_duty_limit_s_per_orbit: 900
